[{"OBJECT_NAME":"OBJECT A","OBJECT_ID":"2025-284A","EPOCH":"2026-03-09T22:32:24.508320","MEAN_MOTION":13.97315283,"ECCENTRICITY":0.00115689,"INCLINATION":80.4065,"RA_OF_ASC_NODE":32.9065,"ARG_OF_PERICENTER":141.4365,"MEAN_ANOMALY":218.7625,"EPHEMERIS_TYPE":0,"CLASSIFICATION_TYPE":"U","NORAD_CAT_ID":66913,"ELEMENT_SET_NO":999,"REV_AT_EPOCH":1362,"BSTAR":0.00014617257,"MEAN_MOTION_DOT":2.14e-6,"MEAN_MOTION_DDOT":0},{"OBJECT_NAME":"PEGASUS DEB","OBJECT_ID":"1994-029ACT","EPOCH":"2026-03-09T11:29:04.934976","MEAN_MOTION":13.7018265,"ECCENTRICITY":0.06036208,"INCLINATION":81.5086,"RA_OF_ASC_NODE":254.696,"ARG_OF_PERICENTER":195.8993,"MEAN_ANOMALY":162.246,"EPHEMERIS_TYPE":0,"CLASSIFICATION_TYPE":"U","NORAD_CAT_ID":24985,"ELEMENT_SET_NO":999,"REV_AT_EPOCH":58552,"BSTAR":0.0023741539,"MEAN_MOTION_DOT":7.826e-5,"MEAN_MOTION_DDOT":0}]
